*******************************************************************************
Revised: Jul 26, 2016             Moon / (Earth)                            301
 
PHYSICAL PROPERTIES:
 Radius (IAU), km      = 1737.4          Mass, 10^20 kg        =  734.9
 Radius (gravity), km  = 1738.0          Geometric albedo      =    0.12
 Density, gm cm^-3     =    3.3437       GM, km^3/s^2          = 4902.80007
 V(1,0)                =   +0.21         Surface gravity       =    1.62 m s^-2
 Earth/Moon mass ratio = 81.3005691      Farside crust. thick. = ~80 - 90 km   
 Nearside crust. thick.= 58+-8 km        Heat flow, Apollo 17  = 2.2+-.5 mW/m^2
 Heat flow, Apollo 15  = 3.1+-.6 mW/m^2  k2                    = 0.024059
 Mean crustal density  = 2.97+-.07g/cm^3 Magnetometer moment   = 435+-15        
 Induced magnetic mom. = 4.23x10^22Gcm^3 

DYNAMICAL CHARACTERISTICS:
 Mean angular diameter = 31'05.2"        Orbit period          = 27.321582 d
 Obliquity to orbit    = 6.67 deg        Eccentricity          = 0.05490
 Semi-major axis, a    = 384400 km       Inclination           = 5.145 deg
 Mean motion, rad/s    = 2.6616995x10^-6 Nodal period          = 6798.38 d
 Apsidal period        = 3231.50 d       Mom. of inertia C/MR^2= 0.393142
 beta (C-A/B), x10^-4  = 6.310213        gamma (B-A/C), x10^-4 = 2.277317
*******************************************************************************
 
 
*******************************************************************************
Ephemeris / WWW_USER Mon Oct  2 17:08:13 2017 Pasadena, USA      / Horizons    
*******************************************************************************
Target body name: Moon (301)                      {source: DE431mx}
Center body name: Earth-Moon Barycenter (3)       {source: DE431mx}
Center-site name: BODY CENTER
*******************************************************************************
Start time      : A.D. 1600-Jan-01 00:00:00.0000 TDB
Stop  time      : A.D. 2030-Jan-01 00:00:00.0000 TDB
Step-size       : 1 calendar months
*******************************************************************************
Center geodetic : 0.00000000,0.00000000,0.0000000 {E-lon(deg),Lat(deg),Alt(km)}
Center cylindric: 0.00000000,0.00000000,0.0000000 {E-lon(deg),Dxy(km),Dz(km)}
Center radii    : (undefined)                                                  
Keplerian GM    : 8.6730232826523468E-10 au^3/d^2
Output units    : AU-D, deg, Julian Day Number (Tp)                            
Output type     : GEOMETRIC osculating elements
Output format   : 10
Reference frame : ICRF/J2000.0                                                 
Coordinate systm: Ecliptic and Mean Equinox of Reference Epoch                 
*******************************************************************************
            JDTDB,            Calendar Date (TDB),                     EC,                     QR,                     IN,                     OM,                      W,                     Tp,                      N,                     MA,                     TA,                      A,                     AD,                     PR,
**************************************************************************************************************************************************************************************************************************************************************************************************************************************************
$$SOE
2367904.500000000, A.D. 1771-Jan-01 00:00:00.0000,  7.416635533369369E-02,  2.361944445170901E-03,  5.128664122542120E+00,  2.393110753931997E+02,  2.399969643524815E+02,  2.367905874079090E+06,  1.309491878524362E+01,  3.420065459188024E+02,  3.391296353379640E+02,  2.551154258411300E-03,  2.740364071651699E-03,  2.749157943657324E+01,
2367935.500000000, A.D. 1771-Feb-01 00:00:00.0000,  7.659609744227297E-02,  2.352339935259760E-03,  4.996823467625458E+00,  2.364276532945032E+02,  2.543585956915621E+02,  2.367934105643780E+06,  1.312336852463968E+01,  1.829865052910969E+01,  2.132734337256875E+01,  2.547465880038017E-03,  2.742591824816275E-03,  2.743198130297756E+01,
2367963.500000000, A.D. 1771-Mar-01 00:00:00.0000,  7.248734708042842E-02,  2.365844355053682E-03,  5.014921694747493E+00,  2.333472359565487E+02,  2.740810738223154E+02,  2.367962666055722E+06,  1.309810290892299E+01,  1.092308797332271E+01,  1.264985476066284E+01,  2.550740787855143E-03,  2.735637220656604E-03,  2.748489628637385E+01,
2367994.500000000, A.D. 1771-Apr-01 00:00:00.0000,  6.348576342681345E-02,  2.386819532315698E-03,  5.165062118777060E+00,  2.310837580620368E+02,  2.834773703971024E+02,  2.367990560383756E+06,  1.311445023313320E+01,  5.166590117432737E+01,  5.765618475011540E+01,  2.548620660641899E-03,  2.710421788968099E-03,  2.745063602364914E+01,
2368024.500000000, A.D. 1771-May-01 00:00:00.0000,  5.405501719087828E-02,  2.409297716854341E-03,  5.262653163913074E+00,  2.306723614122465E+02,  2.862900927493225E+02,  2.368018070785436E+06,  1.312716675289520E+01,  8.439737166468632E+01,  9.059086219076633E+01,  2.546974465364339E-03,  2.684651213874335E-03,  2.742404410461244E+01,
2368055.500000000, A.D. 1771-Jun-01 00:00:00.0000,  5.351837347135948E-02,  2.400754903386496E-03,  5.213219415291902E+00,  2.305320402947163E+02,  2.814585257432373E+02,  2.368045082508730E+06,  1.320852836704185E+01,  1.375997289547762E+02,  1.415369861340847E+02,  2.536504498446120E-03,  2.672254093505742E-03,  2.725511805677598E+01,
2368085.500000000, A.D. 1771-Jul-01 00:00:00.0000,  5.624938287383321E-02,  2.391183659153614E-03,  5.079052195404775E+00,  2.291875280151465E+02,  2.835157549783381E+02,  2.368072484262401E+06,  1.323044221243612E+01,  1.722039641503180E+02,  1.730212019455800E+02,  2.533702882690613E-03,  2.676222106227613E-03,  2.720997486097732E+01,
2368116.500000000, A.D. 1771-Aug-01 00:00:00.0000,  6.254864856165589E-02,  2.364140219159335E-03,  5.010079907286602E+00,  2.262971772900983E+02,  2.942248678694206E+02,  2.368127532322972E+06,  1.332358665144422E+01,  2.130098889134162E+02,  2.093483960133631E+02,  2.521880432016023E-03,  2.679620644872710E-03,  2.701975146917196E+01,
2368147.500000000, A.D. 1771-Sep-01 00:00:00.0000,  6.237121837015849E-02,  2.355936728951191E-03,  5.079082557679874E+00,  2.234428574949530E+02,  3.096388902470207E+02,  2.368155759752864E+06,  1.339703985453310E+01,  2.493437616842059E+02,  2.428490906498084E+02,  2.512654021622463E-03,  2.669371314293736E-03,  2.687160775133384E+01,
2368177.500000000, A.D. 1771-Oct-01 00:00:00.0000,  5.287026077783568E-02,  2.378067123785226E-03,  5.206133444058008E+00,  2.218754228304102E+02,  3.225899697355416E+02,  2.368183951317754E+06,  1.341176500139805E+01,  2.734764423357810E+02,  2.674161026181654E+02,  2.510814543462892E-03,  2.643561963140557E-03,  2.684210467171721E+01,
2368208.500000000, A.D. 1771-Nov-01 00:00:00.0000,  3.971968159791272E-02,  2.412306249225205E-03,  5.270408759149682E+00,  2.215194687039138E+02,  3.284409775848969E+02,  2.368211700797371E+06,  1.340158815179069E+01,  3.171042318746228E+02,  3.138910877035997E+02,  2.512085484829365E-03,  2.611864720433526E-03,  2.686248793221552E+01,
2368238.500000000, A.D. 1771-Dec-01 00:00:00.0000,  2.849977846435866E-02,  2.443940821776654E-03,  5.203482412156384E+00,  2.212060219570023E+02,  3.147468596513281E+02,  2.368237999502625E+06,  1.337322698915325E+01,  6.693265007979427E+00,  7.087848356096385E+00,  2.515635887260570E-03,  2.587330952744487E-03,  2.691945633555675E+01,
2368269.500000000, A.D. 1772-Jan-01 00:00:00.0000,  3.397964585578223E-02,  2.443685232958464E-03,  5.054128480682895E+00,  2.195657301157565E+02,  2.990004552421981E+02,  2.368264000952556E+06,  1.326231709990126E+01,  7.293011095261818E+01,  7.669661209314043E+01,  2.529641557214689E-03,  2.615597881470913E-03,  2.714457792618155E+01,
2368300.500000000, A.D. 1772-Feb-01 00:00:00.0000,  4.402906491175159E-02,  2.432483542014439E-03,  4.985719202129932E+00,  2.162195035208404E+02,  3.044448127947689E+02,  2.368291429092699E+06,  1.314619455562620E+01,  1.192479121714121E+02,  1.235306892951345E+02,  2.544516211457715E-03,  2.656548880900991E-03,  2.738435054165011E+01,
2368329.500000000, A.D. 1772-Mar-01 00:00:00.0000,  5.334812896257186E-02,  2.402996589424566E-03,  5.091942459042093E+00,  2.134663376944244E+02,  3.095726101841041E+02,  2.368318956718629E+06,  1.319360881630716E+01,  1.391039300485027E+02,  1.429110152154788E+02,  2.538416352350460E-03,  2.673836115276354E-03,  2.728593859437790E+01,
2368360.500000000, A.D. 1772-Apr-01 00:00:00.0000,  5.260205199713696E-02,  2.415713372990176E-03,  5.238495306260737E+00,  2.122191554079517E+02,  3.228394777692657E+02,  2.368347130109035E+06,  1.310504277736534E+01,  1.752129930273993E+02,  1.756850125978663E+02,  2.549840199762472E-03,  2.683967026534768E-03,  2.747034146441566E+01,
2368390.500000000, A.D. 1772-May-01 00:00:00.0000,  4.957986544255908E-02,  2.424645469071771E-03,  5.261331973500607E+00,  2.122334398687949E+02,  3.280169713998484E+02,  2.368402323840841E+06,  1.309510433798134E+01,  2.051655705172355E+02,  2.028787954136640E+02,  2.551130159085694E-03,  2.677614849099617E-03,  2.749118989116015E+01,
2368421.500000000, A.D. 1772-Jun-01 00:00:00.0000,  4.387230219332092E-02,  2.442824407630712E-03,  5.133318000118881E+00,  2.115949219609763E+02,  3.271384802611628E+02,  2.368429561858262E+06,  1.306602129298184E+01,  2.546635882873540E+02,  2.498900949674191E+02,  2.554914383543599E-03,  2.667004359456487E-03,  2.755238124350578E+01,
2368451.500000000, A.D. 1772-Jul-01 00:00:00.0000,  4.709477037395045E-02,  2.432867557925605E-03,  5.005121447635748E+00,  2.093008272968226E+02,  3.236874630469910E+02,  2.368456420562353E+06,  1.307990993016863E+01,  2.956394876175788E+02,  2.906534951177142E+02,  2.553105473962338E-03,  2.673343389999070E-03,  2.752312530605926E+01,
